NORAD_CAT_ID,OBJECT_NAME,OBJECT_TYPE,EPOCH,MEAN_MOTION,ECCENTRICITY,INCLINATION,RA_OF_ASC_NODE,ARG_OF_PERICENTER,MEAN_ANOMALY,BSTAR,MEAN_MOTION_DOT,MEAN_MOTION_DDOT,TLE_LINE0,TLE_LINE1,TLE_LINE2,SEMIMAJOR_AXIS,PERIOD,APOGEE,PERIGEE,DECAYED
53912.0,STARLINK-5059,PAYLOAD,2022-11-27 14:00:01,15.65973179,0.0001063,53.2169,298.2318,75.0408,228.0989,-0.0096602,-0.00915061,0.0,0 STARLINK-5059,1 53912U 22119AC  22331.58334491 -.00915061  00000-0 -96602-2 0  9992,2 53912  53.2169 298.2318 0001063  75.0408 228.0989 15.65973179  1300,6748.578,91.956,371.161,369.726,0.0
53912.0,STARLINK-5059,PAYLOAD,2022-11-27 22:00:00,15.65314001,0.0001122,53.2165,296.6001,65.9849,317.0019,-0.009767,-0.00902133,0.0,0 STARLINK-5059,1 53912U 22119AC  22331.91667824 -.00902133  00000-0 -97670-2 0  9990,2 53912  53.2165 296.6001 0001122  65.9849 317.0019 15.65314001  1306,6750.473000000001,91.994,373.095,371.58,0.0
53912.0,STARLINK-5059,PAYLOAD,2022-11-28 00:00:00,15.65155873,0.0001296,53.217,296.1926,64.62,68.2035,-0.0099079,-0.00908759,0.0,0 STARLINK-5059,1 53912U 22119AC  22332.00001157 -.00908759  00000-0 -99079-2 0  9997,2 53912  53.2170 296.1926 0001296  64.6200  68.2035 15.65155873 10518,6750.928000000001,92.004,373.667,371.918,0.0
53912.0,STARLINK-5059,PAYLOAD,2022-11-28 22:00:01,15.63366194,0.0001228,53.2165,291.716,68.2386,189.6478,-0.010629,-0.00907793,0.0,0 STARLINK-5059,1 53912U 22119AC  22332.91668981 -.00907793  00000-0 -10629-1 0  9991,2 53912  53.2165 291.7160 0001228  68.2386 189.6478 15.63366194 10655,6756.079000000002,92.109,378.773,377.114,0.0
53912.0,STARLINK-5059,PAYLOAD,2022-11-29 14:00:01,15.62066127,0.000112,53.2165,288.4687,65.1555,345.3771,-0.011243,-0.00911878,0.0,0 STARLINK-5059,1 53912U 22119AC  22333.58335648 -.00911878  00000-0 -11243-1 0  9998,2 53912  53.2165 288.4687 0001120  65.1555 345.3771 15.62066127  1308,6759.8269999999975,92.186,382.449,380.935,0.0
53912.0,STARLINK-5059,PAYLOAD,2022-11-29 22:00:00,15.61419147,0.0001240999999999,53.2162,286.8465,72.7355,52.8794,-0.011581,-0.00915525,0.0,0 STARLINK-5059,1 53912U 22119AC  22333.91667824 -.00915525  00000-0 -11581-1 0  9997,2 53912  53.2162 286.8465 0001241  72.7355  52.8794 15.61419147 10811,6761.694,92.224,384.398,382.72,0.0
53912.0,STARLINK-5059,PAYLOAD,2022-11-30 14:00:01,15.60113426,0.0001158,53.2175,283.6075,73.1861,200.4501,-0.012138,-0.00912479,0.0,0 STARLINK-5059,1 53912U 22119AC  22334.58335648 -.00912479  00000-0 -12138-1 0  9991,2 53912  53.2175 283.6075 0001158  73.1861 200.4501 15.60113426  1302,6765.465999999999,92.301,388.115,386.548,0.0
53912.0,STARLINK-5059,PAYLOAD,2022-11-30 22:00:00,15.59460807,0.0001104,53.2177,281.9903,72.5083,273.8665,-0.012392,-0.0090883,0.0,0 STARLINK-5059,1 53912U 22119AC  22334.91667824 -.00908830  00000-0 -12392-1 0  9990,2 53912  53.2177 281.9903 0001104  72.5083 273.8665 15.59460807 10968,6767.354,92.34,389.966,388.471,0.0
53912.0,STARLINK-5059,PAYLOAD,2022-12-01 14:00:01,15.58157769,0.0001179,53.2175,278.7613,76.3769,53.2578,-0.012999,-0.00907285,0.0,0 STARLINK-5059,1 53912U 22119AC  22335.58334491 -.00907285  00000-0 -12999-1 0  9991,2 53912  53.2175 278.7613 0001179  76.3769  53.2578 15.58157769  1303,6771.126,92.417,393.789,392.193,0.0
53912.0,STARLINK-5059,PAYLOAD,2022-12-01 22:00:00,15.57509093,0.0001286999999999,53.2164,277.1496,68.3278,131.7613,-0.013361,-0.00909721,0.0,0 STARLINK-5059,1 53912U 22119AC  22335.91667824 -.00909721  00000-0 -13361-1 0  9998,2 53912  53.2164 277.1496 0001287  68.3278 131.7613 15.57509093 11122,6773.005999999999,92.455,395.742,393.999,0.0
53912.0,STARLINK-5059,PAYLOAD,2022-12-02 14:00:01,15.5618949,0.0001037,53.2164,273.9304,77.7056,260.9581,-0.013658,-0.00887086,0.0,0 STARLINK-5059,1 53912U 22119AC  22336.58334491 -.00887086  00000-0 -13658-1 0  9991,2 53912  53.2164 273.9304 0001037  77.7056 260.9581 15.56189490  1307,6776.834,92.534,399.402,397.996,0.0
53912.0,STARLINK-5059,PAYLOAD,2022-12-02 22:00:00,15.55575131,0.0001131,53.2162,272.3222,72.9964,333.7587,-0.014816,-0.00935573,0.0,0 STARLINK-5059,1 53912U 22119AC  22336.91667824 -.00935573  00000-0 -14816-1 0  9999,2 53912  53.2162 272.3222 0001131  72.9964 333.7587 15.55575131 11280,6778.618,92.57,401.25,399.717,0.0
53912.0,STARLINK-5059,PAYLOAD,2022-12-03 14:00:01,15.54253218,0.0001212,53.2168,269.1121,73.3154,107.3215,-0.01506,-0.00908305,0.0,0 STARLINK-5059,1 53912U 22119AC  22337.58334491 -.00908305  00000-0 -15060-1 0  9999,2 53912  53.2168 269.1121 0001212  73.3154 107.3215 15.54253218  1307,6782.4609999999975,92.649,405.148,403.504,0.0
53912.0,STARLINK-5059,PAYLOAD,2022-12-03 22:00:00,15.53604537,0.0001222,53.2167,267.5092,83.4177,162.9806,-0.0154759999999999,-0.0091114,0.0,0 STARLINK-5059,1 53912U 22119AC  22337.91667824 -.00911140  00000-0 -15476-1 0  9997,2 53912  53.2167 267.5092 0001222  83.4177 162.9806 15.53604537  1309,6784.349,92.688,407.043,405.385,0.0
53912.0,STARLINK-5059,PAYLOAD,2022-12-04 06:00:00,15.52948131,0.0001134,53.2166,265.91,86.6502,224.7294,-0.015697,-0.00903029,0.0,0 STARLINK-5059,1 53912U 22119AC  22338.25001157 -.00903029  00000-0 -15697-1 0  9998,2 53912  53.2166 265.9100 0001134  86.6502 224.7294 15.52948131 11487,6786.261,92.727,408.895,407.356,0.0
53912.0,STARLINK-5059,PAYLOAD,2022-12-04 14:00:01,15.52297719,0.0001074,53.2167,264.3083,75.0877,300.4913,-0.016109,-0.00904871,0.0,0 STARLINK-5059,1 53912U 22119AC  22338.58334491 -.00904871  00000-0 -16109-1 0  9999,2 53912  53.2167 264.3083 0001074  75.0877 300.4913 15.52297719  1300,6788.156,92.766,410.75,409.292,0.0
53912.0,STARLINK-5059,PAYLOAD,2022-12-04 22:00:00,15.51655129,0.0001149,53.2165,262.7102,80.2076,358.783,-0.016718,-0.00929163,0.0,0 STARLINK-5059,1 53912U 22119AC  22338.91667824 -.00929163  00000-0 -16718-1 0  9992,2 53912  53.2165 262.7102 0001149  80.2076 358.7830 15.51655129  1300,6790.03,92.804,412.675,411.115,0.0
53912.0,STARLINK-5059,PAYLOAD,2022-12-05 06:00:00,15.50994703,0.0001318,53.2166,261.1155,81.4521,60.1753,-0.016866,-0.00916495,0.0,0 STARLINK-5059,1 53912U 22119AC  22339.25001157 -.00916495  00000-0 -16866-1 0  9999,2 53912  53.2166 261.1155 0001318  81.4521  60.1753 15.50994703 11647,6791.958000000001,92.844,414.718,412.927,0.0
53912.0,STARLINK-5059,PAYLOAD,2022-12-05 14:00:01,15.50297966,0.0001416,53.2166,259.5188,80.75,122.7917,-0.0099414,-0.00535538,0.0,0 STARLINK-5059,1 53912U 22119AC  22339.58335648 -.00535538  00000-0 -99414-2 0  9996,2 53912  53.2166 259.5188 0001416  80.7500 122.7917 15.50297966 11691,6793.9919999999975,92.885,416.819,414.895,0.0
53912.0,STARLINK-5059,PAYLOAD,2022-12-05 22:00:01,15.49919221,0.0001250999999999,53.2175,257.9252,83.9081,180.8162,-0.01088,-0.00575293,0.0,0 STARLINK-5059,1 53912U 22119AC  22339.91668981 -.00575293  00000-0 -10880-1 0  9993,2 53912  53.2175 257.9252 0001251  83.9081 180.8162 15.49919221  1308,6795.099,92.908,417.814,416.114,0.0
53912.0,STARLINK-5059,PAYLOAD,2022-12-06 08:00:01,15.49367186,0.00011,53.2165,255.9356,75.5249,354.9455,-0.017918,-0.00918525,0.0,0 STARLINK-5059,1 53912U 22119AC  22340.33334491 -.00918525  00000-0 -17918-1 0  9995,2 53912  53.2165 255.9356 0001100  75.5249 354.9455 15.49367186 11819,6796.7130000000025,92.941,419.326,417.83,0.0
53912.0,STARLINK-5059,PAYLOAD,2022-12-06 14:00:01,15.48870226,0.0001049,53.217,254.7408,79.7074,305.8249,-0.017984,-0.00906814,0.0,0 STARLINK-5059,1 53912U 22119AC  22340.58335648 -.00906814  00000-0 -17984-1 0  9998,2 53912  53.2170 254.7408 0001049  79.7074 305.8249 15.48870226  1306,6798.167,92.971,420.745,419.319,0.0
53912.0,STARLINK-5059,PAYLOAD,2022-12-06 22:00:00,15.482387,0.0001171,53.2168,253.1512,88.9642,355.7993,-0.018987,-0.00933967,0.0,0 STARLINK-5059,1 53912U 22119AC  22340.91667824 -.00933967  00000-0 -18987-1 0  9992,2 53912  53.2168 253.1512 0001171  88.9642 355.7993 15.48238700  1306,6800.015,93.009,422.677,421.084,0.0
53912.0,STARLINK-5059,PAYLOAD,2022-12-07 08:00:01,15.47411117,0.0001181,53.2169,251.1668,89.2269,158.5739,-0.019094,-0.00914071,0.0,0 STARLINK-5059,1 53912U 22119AC  22341.33334491 -.00914071  00000-0 -19094-1 0  9995,2 53912  53.2169 251.1668 0001181  89.2269 158.5739 15.47411117 11961,6802.44,93.059,425.108,423.501,0.0
53912.0,STARLINK-5059,PAYLOAD,2022-12-08 00:00:00,15.4611592,0.0001151,53.2172,247.9955,94.4437,267.6627,-0.020218,-0.0092433,0.0,0 STARLINK-5059,1 53912U 22119AC  22342.00001157 -.00924330  00000-0 -20218-1 0  9999,2 53912  53.2172 247.9955 0001151  94.4437 267.6627 15.46115920  1306,6806.238,93.137,428.887,427.32,0.0
53912.0,STARLINK-5059,PAYLOAD,2022-12-08 08:00:01,15.45459505,0.0001088,53.2173,246.4119,89.3736,328.7157,-0.020472,-0.00915684,0.0,0 STARLINK-5059,1 53912U 22119AC  22342.33334491 -.00915684  00000-0 -20472-1 0  9999,2 53912  53.2173 246.4119 0001088  89.3736 328.7157 15.45459505 12125,6808.165,93.176,430.771,429.29,0.0
53912.0,STARLINK-5059,PAYLOAD,2022-12-08 14:00:01,15.44971783,0.0001098,53.2169,245.2249,65.8745,303.6868,-0.020836,-0.00916393,0.0,0 STARLINK-5059,1 53912U 22119AC  22342.58334491 -.00916393  00000-0 -20836-1 0  9998,2 53912  53.2169 245.2249 0001098  65.8745 303.6868 15.44971783  1306,6809.598000000001,93.206,432.211,430.715,0.0
53912.0,STARLINK-5059,PAYLOAD,2022-12-08 22:00:01,15.44320371,0.0001256,53.2177,243.6449,61.2558,2.9817,-0.021307,-0.00916444,0.0,0 STARLINK-5059,1 53912U 22119AC  22342.91668981 -.00916444  00000-0 -21307-1 0  9990,2 53912  53.2177 243.6449 0001256  61.2558   2.9817 15.44320371  1301,6811.513000000001,93.245,434.233,432.522,0.0
53912.0,STARLINK-5059,PAYLOAD,2022-12-09 06:00:02,15.43675507,0.0001208,53.2163,242.067,70.1065,47.9559,-0.021962,-0.00923437,0.0,0 STARLINK-5059,1 53912U 22119AC  22343.25002315 -.00923437  00000-0 -21962-1 0  9998,2 53912  53.2163 242.0670 0001208  70.1065  47.9559 15.43675507 12266,6813.41,93.284,436.098,434.452,0.0
